CCSDS_OMM_VERS = 2.0
CREATION_DATE  = 
ORIGINATOR     = 

OBJECT_NAME    = STARLINK-36307
OBJECT_ID      = 2026-057N
CENTER_NAME    = EARTH
REF_FRAME      = TEME
TIME_SYSTEM    = UTC
MEAN_ELEMENT_THEORY = SGP/SGP4

EPOCH          = 2026-03-25T18:00:01.999296
MEAN_MOTION    = 16.08381993
ECCENTRICITY   = .0000901
INCLINATION    = 97.2828
RA_OF_ASC_NODE = 207.5772
ARG_OF_PERICENTER = 83.7512
MEAN_ANOMALY   = 350.4342

EPHEMERIS_TYPE = 0
CLASSIFICATION_TYPE = U
NORAD_CAT_ID   = 68306
ELEMENT_SET_NO = 999
REV_AT_EPOCH   = 189
BSTAR          = -.75226E-3
MEAN_MOTION_DOT = -.629193E-2
MEAN_MOTION_DDOT = .15339E-3

CCSDS_OMM_VERS = 2.0
CREATION_DATE  = 
ORIGINATOR     = 

OBJECT_NAME    = STARLINK-36264
OBJECT_ID      = 2026-057P
CENTER_NAME    = EARTH
REF_FRAME      = TEME
TIME_SYSTEM    = UTC
MEAN_ELEMENT_THEORY = SGP/SGP4

EPOCH          = 2026-03-25T18:00:01.999296
MEAN_MOTION    = 16.08718023
ECCENTRICITY   = .0000876
INCLINATION    = 97.2827
RA_OF_ASC_NODE = 207.5782
ARG_OF_PERICENTER = 88.8584
MEAN_ANOMALY   = 348.1950

EPHEMERIS_TYPE = 0
CLASSIFICATION_TYPE = U
NORAD_CAT_ID   = 68307
ELEMENT_SET_NO = 999
REV_AT_EPOCH   = 195
BSTAR          = -.72829E-3
MEAN_MOTION_DOT = -.622313E-2
MEAN_MOTION_DDOT = .15095E-3

CCSDS_OMM_VERS = 2.0
CREATION_DATE  = 
ORIGINATOR     = 

OBJECT_NAME    = STARLINK-37138
OBJECT_ID      = 2026-057Q
CENTER_NAME    = EARTH
REF_FRAME      = TEME
TIME_SYSTEM    = UTC
MEAN_ELEMENT_THEORY = SGP/SGP4

EPOCH          = 2026-03-25T18:00:01.999296
MEAN_MOTION    = 16.08804648
ECCENTRICITY   = .0000836
INCLINATION    = 97.2823
RA_OF_ASC_NODE = 207.5782
ARG_OF_PERICENTER = 94.1675
MEAN_ANOMALY   = 343.7886

EPHEMERIS_TYPE = 0
CLASSIFICATION_TYPE = U
NORAD_CAT_ID   = 68308
ELEMENT_SET_NO = 999
REV_AT_EPOCH   = 162
BSTAR          = -.72822E-3
MEAN_MOTION_DOT = -.625672E-2
MEAN_MOTION_DDOT = .15264E-3

CCSDS_OMM_VERS = 2.0
CREATION_DATE  = 
ORIGINATOR     = 

OBJECT_NAME    = STARLINK-37149
OBJECT_ID      = 2026-057R
CENTER_NAME    = EARTH
REF_FRAME      = TEME
TIME_SYSTEM    = UTC
MEAN_ELEMENT_THEORY = SGP/SGP4

EPOCH          = 2026-03-25T18:00:01.999296
MEAN_MOTION    = 16.08914494
ECCENTRICITY   = .0000962
INCLINATION    = 97.2822
RA_OF_ASC_NODE = 207.5787
ARG_OF_PERICENTER = 81.4520
MEAN_ANOMALY   = 357.6438

EPHEMERIS_TYPE = 0
CLASSIFICATION_TYPE = U
NORAD_CAT_ID   = 68309
ELEMENT_SET_NO = 999
REV_AT_EPOCH   = 173
BSTAR          = -.70236E-3
MEAN_MOTION_DOT = -.607805E-2
MEAN_MOTION_DDOT = .14484E-3

CCSDS_OMM_VERS = 2.0
CREATION_DATE  = 
ORIGINATOR     = 

OBJECT_NAME    = STARLINK-37148
OBJECT_ID      = 2026-057S
CENTER_NAME    = EARTH
REF_FRAME      = TEME
TIME_SYSTEM    = UTC
MEAN_ELEMENT_THEORY = SGP/SGP4

EPOCH          = 2026-03-25T18:00:01.999296
MEAN_MOTION    = 16.09176519
ECCENTRICITY   = .000091
INCLINATION    = 97.2822
RA_OF_ASC_NODE = 207.5798
ARG_OF_PERICENTER = 89.8957
MEAN_ANOMALY   = 351.5503

EPHEMERIS_TYPE = 0
CLASSIFICATION_TYPE = U
NORAD_CAT_ID   = 68310
ELEMENT_SET_NO = 999
REV_AT_EPOCH   = 184
BSTAR          = -.69602E-3
MEAN_MOTION_DOT = -.612466E-2
MEAN_MOTION_DDOT = .14742E-3

CCSDS_OMM_VERS = 2.0
CREATION_DATE  = 
ORIGINATOR     = 

OBJECT_NAME    = STARLINK-37140
OBJECT_ID      = 2026-057T
CENTER_NAME    = EARTH
REF_FRAME      = TEME
TIME_SYSTEM    = UTC
MEAN_ELEMENT_THEORY = SGP/SGP4

EPOCH          = 2026-03-25T18:00:01.999296
MEAN_MOTION    = 16.09063353
ECCENTRICITY   = .0000846
INCLINATION    = 97.2822
RA_OF_ASC_NODE = 207.5793
ARG_OF_PERICENTER = 84.0897
MEAN_ANOMALY   = 356.2416

EPHEMERIS_TYPE = 0
CLASSIFICATION_TYPE = U
NORAD_CAT_ID   = 68311
ELEMENT_SET_NO = 999
REV_AT_EPOCH   = 200
BSTAR          = -.71267E-3
MEAN_MOTION_DOT = -.622524E-2
MEAN_MOTION_DDOT = .15173E-3

CCSDS_OMM_VERS = 2.0
CREATION_DATE  = 
ORIGINATOR     = 

OBJECT_NAME    = STARLINK-36854
OBJECT_ID      = 2026-057U
CENTER_NAME    = EARTH
REF_FRAME      = TEME
TIME_SYSTEM    = UTC
MEAN_ELEMENT_THEORY = SGP/SGP4

EPOCH          = 2026-03-25T18:00:01.999296
MEAN_MOTION    = 16.09294061
ECCENTRICITY   = .0001027
INCLINATION    = 97.2822
RA_OF_ASC_NODE = 207.5804
ARG_OF_PERICENTER = 84.4598
MEAN_ANOMALY   = 358.0623

EPHEMERIS_TYPE = 0
CLASSIFICATION_TYPE = U
NORAD_CAT_ID   = 68312
ELEMENT_SET_NO = 999
REV_AT_EPOCH   = 179
BSTAR          = -.69755E-3
MEAN_MOTION_DOT = -.618428E-2
MEAN_MOTION_DDOT = .15034E-3

CCSDS_OMM_VERS = 2.0
CREATION_DATE  = 
ORIGINATOR     = 

OBJECT_NAME    = STARLINK-36815
OBJECT_ID      = 2026-057V
CENTER_NAME    = EARTH
REF_FRAME      = TEME
TIME_SYSTEM    = UTC
MEAN_ELEMENT_THEORY = SGP/SGP4

EPOCH          = 2026-03-25T18:00:01.999296
MEAN_MOTION    = 16.09446797
ECCENTRICITY   = .0000889
INCLINATION    = 97.2822
RA_OF_ASC_NODE = 207.5808
ARG_OF_PERICENTER = 85.2012
MEAN_ANOMALY   = 358.5954

EPHEMERIS_TYPE = 0
CLASSIFICATION_TYPE = U
NORAD_CAT_ID   = 68313
ELEMENT_SET_NO = 999
REV_AT_EPOCH   = 179
BSTAR          = -.70878E-3
MEAN_MOTION_DOT = -.634478E-2
MEAN_MOTION_DDOT = .158E-3

CCSDS_OMM_VERS = 2.0
CREATION_DATE  = 
ORIGINATOR     = 

OBJECT_NAME    = STARLINK-37155
OBJECT_ID      = 2026-057W
CENTER_NAME    = EARTH
REF_FRAME      = TEME
TIME_SYSTEM    = UTC
MEAN_ELEMENT_THEORY = SGP/SGP4

EPOCH          = 2026-03-25T18:00:01.999296
MEAN_MOTION    = 16.09764440
ECCENTRICITY   = .0000935
INCLINATION    = 97.2821
RA_OF_ASC_NODE = 207.5820
ARG_OF_PERICENTER = 90.2692
MEAN_ANOMALY   = 356.1758

EPHEMERIS_TYPE = 0
CLASSIFICATION_TYPE = U
NORAD_CAT_ID   = 68314
ELEMENT_SET_NO = 999
REV_AT_EPOCH   = 184
BSTAR          = -.72551E-3
MEAN_MOTION_DOT = -.662723E-2
MEAN_MOTION_DDOT = .17206E-3

CCSDS_OMM_VERS = 2.0
CREATION_DATE  = 
ORIGINATOR     = 

OBJECT_NAME    = STARLINK-37150
OBJECT_ID      = 2026-057X
CENTER_NAME    = EARTH
REF_FRAME      = TEME
TIME_SYSTEM    = UTC
MEAN_ELEMENT_THEORY = SGP/SGP4

EPOCH          = 2026-03-20T22:44:29.439744
MEAN_MOTION    = 16.05935099
ECCENTRICITY   = .0003
INCLINATION    = 97.2900
RA_OF_ASC_NODE = 201.9368
ARG_OF_PERICENTER = 252.8300
MEAN_ANOMALY   = 85.5700

EPHEMERIS_TYPE = 0
CLASSIFICATION_TYPE = U
NORAD_CAT_ID   = 68315
ELEMENT_SET_NO = 999
REV_AT_EPOCH   = 1
BSTAR          = 0
MEAN_MOTION_DOT = -.724E-5
MEAN_MOTION_DDOT = .2289398E-5

CCSDS_OMM_VERS = 2.0
CREATION_DATE  = 
ORIGINATOR     = 

OBJECT_NAME    = STARLINK-37154
OBJECT_ID      = 2026-057Y
CENTER_NAME    = EARTH
REF_FRAME      = TEME
TIME_SYSTEM    = UTC
MEAN_ELEMENT_THEORY = SGP/SGP4

EPOCH          = 2026-03-20T22:44:29.439744
MEAN_MOTION    = 16.05935099
ECCENTRICITY   = .0003
INCLINATION    = 97.2900
RA_OF_ASC_NODE = 201.9368
ARG_OF_PERICENTER = 252.8300
MEAN_ANOMALY   = 85.5700

EPHEMERIS_TYPE = 0
CLASSIFICATION_TYPE = U
NORAD_CAT_ID   = 68316
ELEMENT_SET_NO = 999
REV_AT_EPOCH   = 1
BSTAR          = 0
MEAN_MOTION_DOT = -.724E-5
MEAN_MOTION_DDOT = .2289398E-5

CCSDS_OMM_VERS = 2.0
CREATION_DATE  = 
ORIGINATOR     = 

OBJECT_NAME    = STARLINK-37139
OBJECT_ID      = 2026-057Z
CENTER_NAME    = EARTH
REF_FRAME      = TEME
TIME_SYSTEM    = UTC
MEAN_ELEMENT_THEORY = SGP/SGP4

EPOCH          = 2026-03-20T22:44:29.439744
MEAN_MOTION    = 16.05935099
ECCENTRICITY   = .0003
INCLINATION    = 97.2900
RA_OF_ASC_NODE = 201.9368
ARG_OF_PERICENTER = 252.8300
MEAN_ANOMALY   = 85.5700

EPHEMERIS_TYPE = 0
CLASSIFICATION_TYPE = U
NORAD_CAT_ID   = 68317
ELEMENT_SET_NO = 999
REV_AT_EPOCH   = 1
BSTAR          = 0
MEAN_MOTION_DOT = -.724E-5
MEAN_MOTION_DDOT = .2289398E-5

