STARLINK-36307          
1 68306U 26057N   26084.75002314 -.00629193  15339-3 -75226-3 0  9996
2 68306  97.2828 207.5772 0000901  83.7512 350.4342 16.08381993  1894
STARLINK-36264          
1 68307U 26057P   26084.75002314 -.00622313  15095-3 -72829-3 0  9999
2 68307  97.2827 207.5782 0000876  88.8584 348.1950 16.08718023  1955
STARLINK-37138          
1 68308U 26057Q   26084.75002314 -.00625672  15264-3 -72822-3 0  9992
2 68308  97.2823 207.5782 0000836  94.1675 343.7886 16.08804648  1621
STARLINK-37149          
1 68309U 26057R   26084.75002314 -.00607805  14484-3 -70236-3 0  9991
2 68309  97.2822 207.5787 0000962  81.4520 357.6438 16.08914494  1734
STARLINK-37148          
1 68310U 26057S   26084.75002314 -.00612466  14742-3 -69602-3 0  9994
2 68310  97.2822 207.5798 0000910  89.8957 351.5503 16.09176519  1844
STARLINK-37140          
1 68311U 26057T   26084.75002314 -.00622524  15173-3 -71267-3 0  9990
2 68311  97.2822 207.5793 0000846  84.0897 356.2416 16.09063353  2003
STARLINK-36854          
1 68312U 26057U   26084.75002314 -.00618428  15034-3 -69755-3 0  9994
2 68312  97.2822 207.5804 0001027  84.4598 358.0623 16.09294061  1798
STARLINK-36815          
1 68313U 26057V   26084.75002314 -.00634478  15800-3 -70878-3 0  9997
2 68313  97.2822 207.5808 0000889  85.2012 358.5954 16.09446797  1795
STARLINK-37155          
1 68314U 26057W   26084.75002314 -.00662723  17206-3 -72551-3 0  9994
2 68314  97.2821 207.5820 0000935  90.2692 356.1758 16.09764440  1841
STARLINK-37150          
1 68315U 26057X   26079.94756296 -.00000724  22894-5  00000+0 0  9998
2 68315  97.2900 201.9368 0003000 252.8300  85.5700 16.05935099    17
STARLINK-37154          
1 68316U 26057Y   26079.94756296 -.00000724  22894-5  00000+0 0  9999
2 68316  97.2900 201.9368 0003000 252.8300  85.5700 16.05935099    18
STARLINK-37139          
1 68317U 26057Z   26079.94756296 -.00000724  22894-5  00000+0 0  9990
2 68317  97.2900 201.9368 0003000 252.8300  85.5700 16.05935099    19
